[
  {
    "name": "ONEWEB-0365",
    "noradId": "49291",
    "line1": "1 49291U 21090N   26169.62722702  .00000105  00000+0  22952-3 0  9997",
    "line2": "2 49291  87.9179 304.6796 0001814 101.3772 258.7565 13.19725297226619"
  },
  {
    "name": "ONEWEB-0366",
    "noradId": "49292",
    "line1": "1 49292U 21090P   26169.57765550  .00000023  00000+0  26390-4 0  9990",
    "line2": "2 49292  87.8966 289.4292 0001960 100.0921 260.0430 13.14503415227741"
  },
  {
    "name": "ONEWEB-0367",
    "noradId": "49293",
    "line1": "1 49293U 21090Q   26169.52679347  .00000062  00000+0  12027-3 0  9998",
    "line2": "2 49293  87.9197 274.1733 0001922 105.6932 254.4413 13.20771745230002"
  },
  {
    "name": "ONEWEB-0368",
    "noradId": "49294",
    "line1": "1 49294U 21090R   26169.57644184  .00000028  00000+0  37272-4 0  9997",
    "line2": "2 49294  87.9186 274.1736 0001385  86.3560 273.7731 13.20770354231169"
  },
  {
    "name": "ONEWEB-0369",
    "noradId": "49295",
    "line1": "1 49295U 21090S   26169.62249142  .00000071  00000+0  14557-3 0  9997",
    "line2": "2 49295  87.9170 304.6879 0001788  98.7363 261.3973 13.19725297226603"
  },
  {
    "name": "ONEWEB-0370",
    "noradId": "49296",
    "line1": "1 49296U 21090T   26169.53604171  .00000089  00000+0  18762-3 0  9996",
    "line2": "2 49296  87.9195 274.1713 0002231 104.9259 255.2121 13.20771031230046"
  },
  {
    "name": "ONEWEB-0371",
    "noradId": "49297",
    "line1": "1 49297U 21090U   26169.63038382  .00000037  00000+0  61030-4 0  9993",
    "line2": "2 49297  87.9175 304.6788 0001890 102.5348 257.5996 13.19724854226644"
  },
  {
    "name": "ONEWEB-0372",
    "noradId": "49298",
    "line1": "1 49298U 21090V   26169.52582770 -.00002369  00000+0 -58614-2 0  9991",
    "line2": "2 49298  87.9211 274.1787 0002575 101.4551 258.6872 13.20752652230011"
  },
  {
    "name": "ONEWEB-0373",
    "noradId": "49299",
    "line1": "1 49299U 21090W   26169.55119750  .00000083  00000+0  17199-3 0  9992",
    "line2": "2 49299  87.9194 274.1701 0002082  99.8087 260.3281 13.20771427231202"
  },
  {
    "name": "ONEWEB-0374",
    "noradId": "49300",
    "line1": "1 49300U 21090X   26169.56497051  .00000227  00000+0  57659-3 0  9994",
    "line2": "2 49300  87.8971 289.4226 0002121  84.3634 275.7737 13.14503495227740"
  },
  {
    "name": "ONEWEB-0375",
    "noradId": "49301",
    "line1": "1 49301U 21090Y   26169.53941713  .00000095  00000+0  20243-3 0  9993",
    "line2": "2 49301  87.9195 274.1638 0002259  87.3495 272.7897 13.20771879230702"
  },
  {
    "name": "ONEWEB-0376",
    "noradId": "49302",
    "line1": "1 49302U 21090Z   26169.32553632  .00000097  00000+0  21032-3 0  9999",
    "line2": "2 49302  87.9178 304.7395 0001702 102.4740 257.6583 13.19724709226604"
  },
  {
    "name": "ONEWEB-0377",
    "noradId": "49303",
    "line1": "1 49303U 21090AA  26169.52607819  .00009075  00000+0  22269-1 0  9995",
    "line2": "2 49303  87.9183 274.1698 0002587  91.6169 268.5260 13.20761682230693"
  },
  {
    "name": "ONEWEB-0378",
    "noradId": "49304",
    "line1": "1 49304U 21090AB  26169.54628204  .00000112  00000+0  24239-3 0  9993",
    "line2": "2 49304  87.9193 274.1697 0001980  96.0763 264.0596 13.20770719229961"
  },
  {
    "name": "ONEWEB-0379",
    "noradId": "49305",
    "line1": "1 49305U 21090AC  26169.56021022  .00000308  00000+0  79575-3 0  9991",
    "line2": "2 49305  87.8969 289.4343 0001896  96.7325 263.4021 13.14503062227744"
  },
  {
    "name": "ONEWEB-0380",
    "noradId": "49306",
    "line1": "1 49306U 21090AD  26169.62565336  .00000099  00000+0  21374-3 0  9991",
    "line2": "2 49306  87.9173 304.6847 0002076  96.9803 263.1566 13.19725574226611"
  },
  {
    "name": "ONEWEB-0381",
    "noradId": "49307",
    "line1": "1 49307U 21090AE  26169.52257885  .00000040  00000+0  66862-4 0  9996",
    "line2": "2 49307  87.9196 274.1742 0002059  92.8372 267.2997 13.20772334230008"
  },
  {
    "name": "ONEWEB-0382",
    "noradId": "49308",
    "line1": "1 49308U 21090AF  26169.58485895  .00000040  00000+0  66607-4 0  9994",
    "line2": "2 49308  87.9194 274.1559 0001983  91.6745 268.4616 13.20770416230009"
  },
  {
    "name": "ONEWEB-0383",
    "noradId": "49309",
    "line1": "1 49309U 21090AG  26169.62997689  .00000264  00000+0  67653-3 0  9998",
    "line2": "2 49309  87.8972 289.4117 0001829  96.1094 264.0244 13.14501703227782"
  },
  {
    "name": "ONEWEB-0384",
    "noradId": "49310",
    "line1": "1 49310U 21090AH  26169.57345947  .00000069  00000+0  13824-3 0  9992",
    "line2": "2 49310  87.9200 274.2019 0001919  87.0994 273.0359 13.20812518230013"
  },
  {
    "name": "ONEWEB-0385",
    "noradId": "49311",
    "line1": "1 49311U 21090AJ  26169.57813111  .00000104  00000+0  22351-3 0  9991",
    "line2": "2 49311  87.9195 274.1626 0002012  94.6663 265.4701 13.20772835229989"
  },
  {
    "name": "ONEWEB-0386",
    "noradId": "49312",
    "line1": "1 49312U 21090AK  26169.51921277  .00000104  00000+0  22411-3 0  9996",
    "line2": "2 49312  87.9199 274.1653 0001915  92.9026 267.2327 13.20772421229995"
  },
  {
    "name": "ONEWEB-0387",
    "noradId": "49313",
    "line1": "1 49313U 21090AL  26169.57981579  .00000068  00000+0  13549-3 0  9995",
    "line2": "2 49313  87.9186 274.1752 0002306  95.1093 265.0303 13.20772677230003"
  },
  {
    "name": "ONEWEB-0388",
    "noradId": "49314",
    "line1": "1 49314U 21090AM  26169.62091419  .00000095  00000+0  20585-3 0  9995",
    "line2": "2 49314  87.9171 304.6837 0001881  94.6422 265.4926 13.19725650226601"
  },
  {
    "name": "ONEWEB-0389",
    "noradId": "50469",
    "line1": "1 50469U 21132A   26169.48963292  .00000007  00000+0 -15113-4 0  9992",
    "line2": "2 50469  87.9131   5.6090 0002147  81.7081 278.4294 13.17648914218252"
  },
  {
    "name": "ONEWEB-0390",
    "noradId": "50470",
    "line1": "1 50470U 21132B   26169.49132025  .00000018  00000+0  12551-4 0  9991",
    "line2": "2 50470  87.9132   5.6094 0002021  94.0755 266.0608 13.17649132218250"
  },
  {
    "name": "ONEWEB-0391",
    "noradId": "50471",
    "line1": "1 50471U 21132C   26169.49300874  .00000015  00000+0  53435-5 0  9995",
    "line2": "2 50471  87.9132   5.6190 0002689  83.8757 276.2681 13.17648867218254"
  },
  {
    "name": "ONEWEB-0392",
    "noradId": "50472",
    "line1": "1 50472U 21132D   26169.59932580  .00000060  00000+0  12093-3 0  9995",
    "line2": "2 50472  87.9141   5.5661 0002209  82.7214 277.4169 13.17649195218306"
  },
  {
    "name": "ONEWEB-0393",
    "noradId": "50473",
    "line1": "1 50473U 21132E   26169.04329501  .00000018  00000+0  12816-4 0  9996",
    "line2": "2 50473  87.9132   5.6939 0002017  84.9097 275.2265 13.17649679218227"
  },
  {
    "name": "ONEWEB-0394",
    "noradId": "50474",
    "line1": "1 50474U 21132F   26169.46389714  .00000040  00000+0  69328-4 0  9990",
    "line2": "2 50474  87.9171 335.1876 0001819  87.8440 272.2900 13.18688079221769"
  }
]