OBJECT_NAME,OBJECT_ID,EPOCH,MEAN_MOTION,ECCENTRICITY,INCLINATION,RA_OF_ASC_NODE,ARG_OF_PERICENTER,MEAN_ANOMALY,EPHEMERIS_TYPE,CLASSIFICATION_TYPE,NORAD_CAT_ID,ELEMENT_SET_NO,REV_AT_EPOCH,BSTAR,MEAN_MOTION_DOT,MEAN_MOTION_DDOT
ONEWEB-0365,2021-090N,2026-06-18T15:03:12.414528,13.19725297,.00018141,87.9179,304.6796,101.3772,258.7565,0,U,49291,999,22661,.22952384E-3,.105E-5,0
ONEWEB-0366,2021-090P,2026-06-18T13:51:49.435200,13.14503415,.00019606,87.8966,289.4292,100.0921,260.0430,0,U,49292,999,22774,.26390181E-4,.23E-6,0
ONEWEB-0367,2021-090Q,2026-06-18T12:38:34.955808,13.20771745,.00019229,87.9197,274.1733,105.6932,254.4413,0,U,49293,999,23000,.12026541E-3,.62E-6,0
ONEWEB-0368,2021-090R,2026-06-18T13:50:04.574976,13.20770354,.00013852,87.9186,274.1736,86.3560,273.7731,0,U,49294,999,23116,.37272401E-4,.28E-6,0
ONEWEB-0369,2021-090S,2026-06-18T14:56:23.258688,13.19725297,.00017886,87.9170,304.6879,98.7363,261.3973,0,U,49295,999,22660,.14557387E-3,.71E-6,0
ONEWEB-0370,2021-090T,2026-06-18T12:51:54.003744,13.20771031,.00022319,87.9195,274.1713,104.9259,255.2121,0,U,49296,999,23004,.18762446E-3,.89E-6,0
ONEWEB-0371,2021-090U,2026-06-18T15:07:45.162048,13.19724854,.00018901,87.9175,304.6788,102.5348,257.5996,0,U,49297,999,22664,.61029923E-4,.37E-6,0
ONEWEB-0372,2021-090V,2026-06-18T12:37:11.513280,13.20752652,.00025757,87.9211,274.1787,101.4551,258.6872,0,U,49298,999,23001,-.58613887E-2,-.2369E-4,0
ONEWEB-0373,2021-090W,2026-06-18T13:13:43.464000,13.20771427,.00020824,87.9194,274.1701,99.8087,260.3281,0,U,49299,999,23120,.17199084E-3,.83E-6,0
ONEWEB-0374,2021-090X,2026-06-18T13:33:33.452064,13.14503495,.00021215,87.8971,289.4226,84.3634,275.7737,0,U,49300,999,22774,.57659435E-3,.227E-5,0
ONEWEB-0375,2021-090Y,2026-06-18T12:56:45.640032,13.20771879,.00022591,87.9195,274.1638,87.3495,272.7897,0,U,49301,999,23070,.20242773E-3,.95E-6,0
ONEWEB-0376,2021-090Z,2026-06-18T07:48:46.338048,13.19724709,.00017025,87.9178,304.7395,102.4740,257.6583,0,U,49302,999,22660,.21031582E-3,.97E-6,0
ONEWEB-0377,2021-090AA,2026-06-18T12:37:33.155616,13.20761682,.00025875,87.9183,274.1698,91.6169,268.5260,0,U,49303,999,23069,.22268985E-1,.9075E-4,0
ONEWEB-0378,2021-090AB,2026-06-18T13:06:38.768256,13.20770719,.00019802,87.9193,274.1697,96.0763,264.0596,0,U,49304,999,22996,.24238512E-3,.112E-5,0
ONEWEB-0379,2021-090AC,2026-06-18T13:26:42.163008,13.14503062,.00018962,87.8969,289.4343,96.7325,263.4021,0,U,49305,999,22774,.79575192E-3,.308E-5,0
ONEWEB-0380,2021-090AD,2026-06-18T15:00:56.450304,13.19725574,.00020765,87.9173,304.6847,96.9803,263.1566,0,U,49306,999,22661,.2137362E-3,.99E-6,0
ONEWEB-0381,2021-090AE,2026-06-18T12:32:30.812640,13.20772334,.00020592,87.9196,274.1742,92.8372,267.2997,0,U,49307,999,23000,.66861724E-4,.4E-6,0
ONEWEB-0382,2021-090AF,2026-06-18T14:02:11.813280,13.20770416,.00019836,87.9194,274.1559,91.6745,268.4616,0,U,49308,999,23000,.66607101E-4,.4E-6,0
ONEWEB-0383,2021-090AG,2026-06-18T15:07:10.003296,13.14501703,.00018294,87.8972,289.4117,96.1094,264.0244,0,U,49309,999,22778,.67653292E-3,.264E-5,0
ONEWEB-0384,2021-090AH,2026-06-18T13:45:46.898208,13.20812518,.00019193,87.9200,274.2019,87.0994,273.0359,0,U,49310,999,23001,.13824215E-3,.69E-6,0
ONEWEB-0385,2021-090AJ,2026-06-18T13:52:30.527904,13.20772835,.00020127,87.9195,274.1626,94.6663,265.4701,0,U,49311,999,22998,.22351055E-3,.104E-5,0
ONEWEB-0386,2021-090AK,2026-06-18T12:27:39.983328,13.20772421,.0001915,87.9199,274.1653,92.9026,267.2327,0,U,49312,999,22999,.22410949E-3,.104E-5,0
ONEWEB-0387,2021-090AL,2026-06-18T13:54:56.084256,13.20772677,.00023062,87.9186,274.1752,95.1093,265.0303,0,U,49313,999,23000,.13549491E-3,.68E-6,0
ONEWEB-0388,2021-090AM,2026-06-18T14:54:06.986016,13.19725650,.00018811,87.9171,304.6837,94.6422,265.4926,0,U,49314,999,22660,.20584865E-3,.95E-6,0
ONEWEB-0389,2021-132A,2026-06-18T11:45:04.284288,13.17648914,.00021474,87.9131,5.6090,81.7081,278.4294,0,U,50469,999,21825,-.15112589E-4,.7E-7,0
ONEWEB-0390,2021-132B,2026-06-18T11:47:30.069600,13.17649132,.00020219,87.9132,5.6094,94.0755,266.0608,0,U,50470,999,21825,.12551096E-4,.18E-6,0
ONEWEB-0391,2021-132C,2026-06-18T11:49:55.955136,13.17648867,.00026892,87.9132,5.6190,83.8757,276.2681,0,U,50471,999,21825,.5343542E-5,.15E-6,0
ONEWEB-0392,2021-132D,2026-06-18T14:23:01.749120,13.17649195,.0002209,87.9141,5.5661,82.7214,277.4169,0,U,50472,999,21830,.12092963E-3,.6E-6,0
ONEWEB-0393,2021-132E,2026-06-18T01:02:20.688864,13.17649679,.00020174,87.9132,5.6939,84.9097,275.2265,0,U,50473,999,21822,.12815985E-4,.18E-6,0
ONEWEB-0394,2021-132F,2026-06-18T11:08:00.712896,13.18688079,.00018191,87.9171,335.1876,87.8440,272.2900,0,U,50474,999,22176,.69327501E-4,.4E-6,0
